[Satellite]
VERSION=1.1
NAME=SL-16 R/B
NICKNAME=SL-16 R/B
TLE1=1 28353U 04021B   20158.17296664 -.00000319  00000-0 -14193-3 0  9991
TLE2=2 28353  70.9996 322.9848 0005987 328.0042  32.0716 14.14231618825552
STATUS=0
